NORAD_CAT_ID,OBJECT_NAME,OBJECT_TYPE,EPOCH,MEAN_MOTION,ECCENTRICITY,INCLINATION,RA_OF_ASC_NODE,ARG_OF_PERICENTER,MEAN_ANOMALY,BSTAR,MEAN_MOTION_DOT,MEAN_MOTION_DDOT,TLE_LINE0,TLE_LINE1,TLE_LINE2,SEMIMAJOR_AXIS,PERIOD,APOGEE,PERIGEE,DECAYED
55944.0,STARLINK-5926,PAYLOAD,2024-05-23 09:00:01,14.98331811,0.0002962,69.9989,136.6067,267.8119,92.27,-8.1297e-05,-1.063e-05,0.0,0 STARLINK-5926,1 55944U 23037AG  24144.37502189 -.00001063  00000-0 -81297-4 0  9995,2 55944  69.9989 136.6067 0002962 267.8119  92.2700 14.98331811 66169,6950.187,96.107,574.111,569.994,0.0
55944.0,STARLINK-5926,PAYLOAD,2024-05-24 09:02:02,14.98332349,0.0003019,69.9989,134.0818,267.9055,92.1758,-1.7815e-05,-3.06e-06,0.0,0 STARLINK-5926,1 55944U 23037AG  24145.37641775 -.00000306  00000-0 -17815-4 0  9995,2 55944  69.9989 134.0818 0003019 267.9055  92.1758 14.98332349 66315,6950.186,96.107,574.149,569.952,0.0
55944.0,STARLINK-5926,PAYLOAD,2024-05-24 21:51:07,14.98327774,0.0003026,69.999,132.7358,267.2708,92.8104,-6.3352e-06,-1.69e-06,0.0,0 STARLINK-5926,1 55944U 23037AG  24145.91050019 -.00000169  00000-0 -63352-5 0  9995,2 55944  69.9990 132.7358 0003026 267.2708  92.8104 14.98327774 66056,6950.2,96.107,574.168,569.962,0.0
55944.0,STARLINK-5926,PAYLOAD,2024-05-25 09:04:03,14.98325557,0.0002981,69.999,131.5564,268.4385,91.6432,1.3759e-05,7.1e-07,0.0,0 STARLINK-5926,1 55944U 23037AG  24146.37782210  .00000071  00000-0  13759-4 0  9996,2 55944  69.9990 131.5564 0002981 268.4385  91.6432 14.98325557 66468,6950.207,96.107,574.143,570.0,0.0
55944.0,STARLINK-5926,PAYLOAD,2024-05-26 04:17:40,14.98333349,0.0003095,69.9986,129.5362,271.0207,89.0598,4.3547e-05,4.27e-06,0.0,0 STARLINK-5926,1 55944U 23037AG  24147.17893609  .00000427  00000-0  43547-4 0  9993,2 55944  69.9986 129.5362 0003095 271.0207  89.0598 14.98333349 66581,6950.183,96.107,574.199,569.896,0.0
55944.0,STARLINK-5926,PAYLOAD,2024-05-26 09:06:04,14.98334866,0.0003057,69.9987,129.0313,270.3839,89.6969,6.0252e-05,6.26e-06,0.0,0 STARLINK-5926,1 55944U 23037AG  24147.37921414  .00000626  00000-0  60252-4 0  9994,2 55944  69.9987 129.0313 0003057 270.3839  89.6969 14.98334866 66273,6950.178,96.107,574.168,569.918,0.0
55944.0,STARLINK-5926,PAYLOAD,2024-05-26 21:55:08,14.98328153,0.0002968,69.9989,127.685,269.8172,90.2646,3.5082e-05,3.26e-06,0.0,0 STARLINK-5926,1 55944U 23037AG  24147.91329850  .00000326  00000-0  35082-4 0  9990,2 55944  69.9989 127.6850 0002968 269.8172  90.2646 14.98328153 66359,6950.199,96.107,574.126,570.001,0.0
55944.0,STARLINK-5926,PAYLOAD,2024-05-27 04:19:41,14.98327039,0.0002957,69.999,127.0115,266.6483,93.4337,2.2126e-05,1.71e-06,0.0,0 STARLINK-5926,1 55944U 23037AG  24148.18033954  .00000171  00000-0  22126-4 0  9990,2 55944  69.9990 127.0115 0002957 266.6483  93.4337 14.98327039 66733,6950.202,96.107,574.122,570.012,0.0
55944.0,STARLINK-5926,PAYLOAD,2024-05-27 09:08:05,14.98325676,0.0002616,69.9997,126.5069,270.9197,89.1662,1.5373e-05,9e-07,0.0,0 STARLINK-5926,1 55944U 23037AG  24148.38062207  .00000090  00000-0  15373-4 0  9991,2 55944  69.9997 126.5069 0002616 270.9197  89.1662 14.98325676 66428,6950.206,96.107,573.889,570.253,0.0
55944.0,STARLINK-5926,PAYLOAD,2024-05-27 21:57:09,14.98330917,0.0002929,69.9996,125.161,268.2281,91.8543,-1.6335e-05,-2.88e-06,0.0,0 STARLINK-5926,1 55944U 23037AG  24148.91469778 -.00000288  00000-0 -16335-4 0  9994,2 55944  69.9996 125.1610 0002929 268.2281  91.8543 14.98330917 66506,6950.19,96.107,574.091,570.019,0.0
55944.0,STARLINK-5926,PAYLOAD,2024-05-28 04:21:42,14.98332753,0.0003113,69.9985,124.4861,269.156,90.9243,-2.1881e-05,-3.54e-06,0.0,0 STARLINK-5926,1 55944U 23037AG  24149.18173631 -.00000354  00000-0 -21881-4 0  9990,2 55944  69.9985 124.4861 0003113 269.1560  90.9243 14.98332753 66888,6950.184,96.107,574.213,569.886,0.0
55944.0,STARLINK-5926,PAYLOAD,2024-05-28 07:33:57,14.98334538,0.0003125,69.9984,124.1495,268.8234,91.2567,-3.6234e-06,-1.36e-06,0.0,0 STARLINK-5926,1 55944U 23037AG  24149.31525423 -.00000136  00000-0 -36234-5 0  9992,2 55944  69.9984 124.1495 0003125 268.8234  91.2567 14.98334538 66565,6950.179,96.107,574.216,569.872,0.0
55944.0,STARLINK-5926,PAYLOAD,2024-05-29 04:23:43,14.98328445,0.0003095,69.9986,121.9613,268.1177,91.9628,2.242e-06,-6.6e-07,0.0,0 STARLINK-5926,1 55944U 23037AG  24150.18313730 -.00000066  00000-0  22420-5 0  9998,2 55944  69.9986 121.9613 0003095 268.1177  91.9628 14.98328445 67037,6950.198,96.107,574.214,569.912,0.0
55944.0,STARLINK-5926,PAYLOAD,2024-05-29 07:35:58,14.98330834,0.0003192,69.9986,121.6246,259.1987,100.8813,9.619e-06,2.2e-07,0.0,0 STARLINK-5926,1 55944U 23037AG  24150.31665491  .00000022  00000-0  96190-5 0  9993,2 55944  69.9986 121.6246 0003192 259.1987 100.8813 14.98330834 66718,6950.19,96.107,574.274,569.837,0.0
55944.0,STARLINK-5926,PAYLOAD,2024-05-29 07:35:59,14.98330168,0.000308,69.9986,121.6246,268.1983,91.8823,1.5906e-05,9.7e-07,0.0,0 STARLINK-5926,1 55944U 23037AG  24150.31665577  .00000097  00000-0  15906-4 0  9995,2 55944  69.9986 121.6246 0003080 268.1983  91.8823 14.98330168 66710,6950.192,96.107,574.198,569.917,0.0
55944.0,STARLINK-5926,PAYLOAD,2024-05-30 04:25:43,14.98331821,0.0003074,69.9986,119.4361,267.3683,92.7124,1.3596e-05,6.9e-07,0.0,0 STARLINK-5926,1 55944U 23037AG  24151.18453447  .00000069  00000-0  13596-4 0  9994,2 55944  69.9986 119.4361 0003074 267.3683  92.7124 14.98331821 67187,6950.187,96.107,574.189,569.916,0.0
55944.0,STARLINK-5926,PAYLOAD,2024-05-30 07:37:59,14.98333934,0.0003055,69.9987,119.0995,267.2986,92.7823,3.7512e-05,3.55e-06,0.0,0 STARLINK-5926,1 55944U 23037AG  24151.31805219  .00000355  00000-0  37512-4 0  9999,2 55944  69.9987 119.0995 0003055 267.2986  92.7823 14.98333934 66868,6950.181,96.107,574.169,569.922,0.0
55944.0,STARLINK-5926,PAYLOAD,2024-05-31 04:27:44,14.98330653,0.0002894,69.9991,116.9116,268.841,91.2418,3.9607e-05,3.8e-06,0.0,0 STARLINK-5926,1 55944U 23037AG  24152.18593390  .00000380  00000-0  39607-4 0  9994,2 55944  69.9991 116.9116 0002894 268.8410  91.2418 14.98330653 67335,6950.191,96.107,574.067,570.044,0.0
55944.0,STARLINK-5926,PAYLOAD,2024-05-31 07:40:00,14.98332676,0.0002862,69.9992,116.5752,268.6668,91.4163,6.274e-05,6.56e-06,0.0,0 STARLINK-5926,1 55944U 23037AG  24152.31945182  .00000656  00000-0  62740-4 0  9999,2 55944  69.9992 116.5752 0002862 268.6668  91.4163 14.98332676 67017,6950.185,96.107,574.039,570.06,0.0
55944.0,STARLINK-5926,PAYLOAD,2024-05-31 22:05:13,14.98331642,0.0002807,69.9994,115.0599,271.4353,88.6485,-1.5881e-05,-2.82e-06,0.0,0 STARLINK-5926,1 55944U 23037AG  24152.92029406 -.00000282  00000-0 -15881-4 0  9999,2 55944  69.9994 115.0599 0002807 271.4353  88.6485 14.98331642 67101,6950.188,96.107,574.004,570.102,0.0
55944.0,STARLINK-5926,PAYLOAD,2024-06-01 04:29:45,14.98345819,0.0002735,69.9993,114.3868,271.2652,88.8194,-0.00023615,-2.911e-05,0.0,0 STARLINK-5926,1 55944U 23037AG  24153.18733161 -.00002911  00000-0 -23615-3 0  9992,2 55944  69.9993 114.3868 0002735 271.2652  88.8194 14.98345819 67482,6950.144,96.106,573.91,570.108,0.0
55944.0,STARLINK-5926,PAYLOAD,2024-06-01 07:42:01,14.98330942,0.0002828,69.9993,114.0502,271.4128,88.6707,-4.8416e-06,-1.51e-06,0.0,0 STARLINK-5926,1 55944U 23037AG  24153.32085376 -.00000151  00000-0 -48416-5 0  9998,2 55944  69.9993 114.0502 0002828 271.4128  88.6707 14.98330942 67509,6950.19,96.107,574.02,570.089,0.0
55944.0,STARLINK-5926,PAYLOAD,2024-06-01 14:06:33,14.98334427,0.0002836,69.9993,113.3775,269.9726,90.1108,1.4978e-05,8.6e-07,0.0,0 STARLINK-5926,1 55944U 23037AG  24153.58789046  .00000086  00000-0  14978-4 0  9991,2 55944  69.9993 113.3775 0002836 269.9726  90.1108 14.98334427 67200,6950.179,96.107,574.015,570.073,0.0
55944.0,STARLINK-5926,PAYLOAD,2024-06-01 18:54:54,14.98370463,0.0003303,69.9989,112.8716,270.0309,90.0472,0.00043847,5.148e-05,0.0,0 STARLINK-5926,1 55944U 23037AG  24153.78813304  .00005148  00000-0  43847-3 0  9998,2 55944  69.9989 112.8716 0003303 270.0309  90.0472 14.98370463 67577,6950.068,96.104,574.228,569.637,0.0
55944.0,STARLINK-5926,PAYLOAD,2024-06-02 04:31:46,14.98327613,0.0002724,69.9997,111.8621,273.4254,86.6593,-0.00010164,-1.305e-05,0.0,0 STARLINK-5926,1 55944U 23037AG  24154.18872706 -.00001305  00000-0 -10164-3 0  9993,2 55944  69.9997 111.8621 0002724 273.4254  86.6593 14.98327613 67633,6950.2,96.107,573.959,570.172,0.0
55944.0,STARLINK-5926,PAYLOAD,2024-06-02 14:08:34,14.98327237,0.000254,70.0005,110.8514,273.698,86.3889,-0.0002971,-3.636e-05,0.0,0 STARLINK-5926,1 55944U 23037AG  24154.58929321 -.00003636  00000-0 -29710-3 0  9999,2 55944  70.0005 110.8514 0002540 273.6980  86.3889 14.98327237 67356,6950.201,96.107,573.832,570.301,0.0
55944.0,STARLINK-5926,PAYLOAD,2024-06-03 04:33:48,14.98313138,0.0002766,70.0,109.3376,270.4384,89.6458,-0.00015282,-1.915e-05,0.0,0 STARLINK-5926,1 55944U 23037AG  24155.19014113 -.00001915  00000-0 -15282-3 0  9998,2 55944  70.0000 109.3376 0002766 270.4384  89.6458 14.98313138 67783,6950.245,96.108,574.032,570.188,0.0
55944.0,STARLINK-5926,PAYLOAD,2024-06-03 14:10:36,14.98322077,0.0002708,69.9995,108.326,274.2431,85.8419,-0.00014492,-1.821e-05,0.0,0 STARLINK-5926,1 55944U 23037AG  24155.59069794 -.00001821  00000-0 -14492-3 0  9995,2 55944  69.9995 108.3260 0002708 274.2431  85.8419 14.98322077 67502,6950.217,96.108,573.965,570.2,0.0
55944.0,STARLINK-5926,PAYLOAD,2024-06-03 20:35:07,14.98347538,0.0003129,69.9996,107.6539,269.0609,91.0191,-0.0003975,-4.835e-05,0.0,0 STARLINK-5926,1 55944U 23037AG  24155.85772780 -.00004835  00000-0 -39750-3 0  9992,2 55944  69.9996 107.6539 0003129 269.0609  91.0191 14.98347538 67540,6950.139,96.106,574.178,569.829,0.0
55944.0,STARLINK-5926,PAYLOAD,2024-06-04 02:59:39,14.98351232,0.0003077,69.9996,106.9812,266.9034,93.1773,-0.00037271,-4.54e-05,0.0,0 STARLINK-5926,1 55944U 23037AG  24156.12476225 -.00004540  00000-0 -37271-3 0  9997,2 55944  69.9996 106.9812 0003077 266.9034  93.1773 14.98351232 67923,6950.127,96.106,574.131,569.854,0.0
